[{"OBJECT_NAME":"SMOS","OBJECT_ID":"2009-059A","EPOCH":"2026-03-09T12:46:15.832416","MEAN_MOTION":14.39760281,"ECCENTRICITY":9.828e-5,"INCLINATION":98.4428,"RA_OF_ASC_NODE":257.3122,"ARG_OF_PERICENTER":82.3973,"MEAN_ANOMALY":277.7326,"EPHEMERIS_TYPE":0,"CLASSIFICATION_TYPE":"U","NORAD_CAT_ID":36036,"ELEMENT_SET_NO":999,"REV_AT_EPOCH":85911,"BSTAR":0.00013788061,"MEAN_MOTION_DOT":3.89e-6,"MEAN_MOTION_DDOT":0},{"OBJECT_NAME":"METEOR 2-8 DEB","OBJECT_ID":"1982-025AK","EPOCH":"2026-03-01T18:11:50.582976","MEAN_MOTION":14.40767444,"ECCENTRICITY":0.00134962,"INCLINATION":82.4982,"RA_OF_ASC_NODE":228.5854,"ARG_OF_PERICENTER":167.0922,"MEAN_ANOMALY":193.0618,"EPHEMERIS_TYPE":0,"CLASSIFICATION_TYPE":"U","NORAD_CAT_ID":36349,"ELEMENT_SET_NO":999,"REV_AT_EPOCH":19140,"BSTAR":0.0026299859,"MEAN_MOTION_DOT":8.441e-5,"MEAN_MOTION_DDOT":0}]
